{"type": "FeatureCollection", "features": [ {"type": "Feature", "properties": {"norad_id": 44476, "name": "INTELSAT 39 (IS-39)", "group": "intelsat", "lat": -0.028647064979033045, "lon": -29.389336002654915, "alt_km": 35787.42549194545, "timestamp": "2025-12-25T11:37:44.089716+00:00", "meta": {"OBJECT_NAME": "INTELSAT 39 (IS-39)", "OBJECT_ID": "2019-049B", "EPOCH": "2025-12-24T23:39:55.356768", "MEAN_MOTION": 1.0027611, "ECCENTRICITY": 6.2e-05, "INCLINATION": 0.0209, "RA_OF_ASC_NODE": 14.9454, "ARG_OF_PERICENTER": 127.1893, "MEAN_ANOMALY": 8.5314, "EPHEMERIS_TYPE": 0, "CLASSIFICATION_TYPE": "U", "NORAD_CAT_ID": 44476, "ELEMENT_SET_NO": 999, "REV_AT_EPOCH": 2338, "BSTAR": 0, "MEAN_MOTION_DOT": 0, "MEAN_MOTION_DDOT": 0}, "tle": {"line1": "1 44476U 19049B   25358.98605737  .00000000  00000+0  00000+0 0  9994", "line2": "2 44476   0.0209  14.9454 0000620 127.1893   8.5314  1.00276110 23389"}}, "geometry": {"type": "Point", "coordinates": [-29.389336002654915, -0.028647064979033045]}}, {"type": "Feature", "properties": {"norad_id": 46114, "name": "GALAXY 30 (G-30)", "group": "intelsat", "lat": 0.01536190412300054, "lon": 143.64788050275004, "alt_km": 35792.0229759001, "timestamp": "2025-12-25T11:37:44.089728+00:00", "meta": {"OBJECT_NAME": "GALAXY 30 (G-30)", "OBJECT_ID": "2020-056C", "EPOCH": "2025-12-25T04:27:55.525248", "MEAN_MOTION": 1.00271157, "ECCENTRICITY": 0.0002156, "INCLINATION": 0.0175, "RA_OF_ASC_NODE": 337.636, "ARG_OF_PERICENTER": 295.3076, "MEAN_ANOMALY": 122.9843, "EPHEMERIS_TYPE": 0, "CLASSIFICATION_TYPE": "U", "NORAD_CAT_ID": 46114, "ELEMENT_SET_NO": 999, "REV_AT_EPOCH": 1954, "BSTAR": 0, "MEAN_MOTION_DOT": 5.8e-07, "MEAN_MOTION_DDOT": 0}, "tle": {"line1": "1 46114U 20056C   25359.18605932  .00000058  00000+0  00000+0 0  9998", "line2": "2 46114   0.0175 337.6360 0002156 295.3076 122.9843  1.00271157 19547"}}, "geometry": {"type": "Point", "coordinates": [143.64788050275004, 0.01536190412300054]}}, {"type": "Feature", "properties": {"norad_id": 54026, "name": "GALAXY 33 (G-33)", "group": "intelsat", "lat": 0.010024801431615741, "lon": 135.66544069684443, "alt_km": 35790.32527094041, "timestamp": "2025-12-25T11:37:44.089739+00:00", "meta": {"OBJECT_NAME": "GALAXY 33 (G-33)", "OBJECT_ID": "2022-128A", "EPOCH": "2025-12-24T04:31:51.326400", "MEAN_MOTION": 1.00272122, "ECCENTRICITY": 0.0001643, "INCLINATION": 0.0126, "RA_OF_ASC_NODE": 315.9231, "ARG_OF_PERICENTER": 309.5058, "MEAN_ANOMALY": 122.5078, "EPHEMERIS_TYPE": 0, "CLASSIFICATION_TYPE": "U", "NORAD_CAT_ID": 54026, "ELEMENT_SET_NO": 999, "REV_AT_EPOCH": 1198, "BSTAR": 0, "MEAN_MOTION_DOT": 1e-06, "MEAN_MOTION_DDOT": 0}, "tle": {"line1": "1 54026U 22128A   25358.18878850  .00000100  00000+0  00000+0 0  9999", "line2": "2 54026   0.0126 315.9231 0001643 309.5058 122.5078  1.00272122 11987"}}, "geometry": {"type": "Point", "coordinates": [135.66544069684443, 0.010024801431615741]}}, {"type": "Feature", "properties": {"norad_id": 54027, "name": "GALAXY 34 (G-34)", "group": "intelsat", "lat": 0.030878370442651085, "lon": 139.69501110480596, "alt_km": 35791.25043192232, "timestamp": "2025-12-25T11:37:44.089764+00:00", "meta": {"OBJECT_NAME": "GALAXY 34 (G-34)", "OBJECT_ID": "2022-128B", "EPOCH": "2025-12-25T04:34:51.612096", "MEAN_MOTION": 1.00269972, "ECCENTRICITY": 0.0001822, "INCLINATION": 0.0223, "RA_OF_ASC_NODE": 3.2758, "ARG_OF_PERICENTER": 263.7454, "MEAN_ANOMALY": 126.6909, "EPHEMERIS_TYPE": 0, "CLASSIFICATION_TYPE": "U", "NORAD_CAT_ID": 54027, "ELEMENT_SET_NO": 999, "REV_AT_EPOCH": 1216, "BSTAR": 0, "MEAN_MOTION_DOT": 0, "MEAN_MOTION_DDOT": 0}, "tle": {"line1": "1 54027U 22128B   25359.19087514  .00000000  00000+0  00000+0 0  9990", "line2": "2 54027   0.0223   3.2758 0001822 263.7454 126.6909  1.00269972 12165"}}, "geometry": {"type": "Point", "coordinates": [139.69501110480596, 0.030878370442651085]}}, {"type": "Feature", "properties": {"norad_id": 54243, "name": "GALAXY 31 (G-31)", "group": "intelsat", "lat": 0.0022167540542928884, "lon": 147.6531150987329, "alt_km": 35790.86369611451, "timestamp": "2025-12-25T11:37:44.089779+00:00", "meta": {"OBJECT_NAME": "GALAXY 31 (G-31)", "OBJECT_ID": "2022-153A", "EPOCH": "2025-12-24T22:47:45.355200", "MEAN_MOTION": 1.00271396, "ECCENTRICITY": 0.0001535, "INCLINATION": 0.0215, "RA_OF_ASC_NODE": 255.6051, "ARG_OF_PERICENTER": 28.439, "MEAN_ANOMALY": 30.6067, "EPHEMERIS_TYPE": 0, "CLASSIFICATION_TYPE": "U", "NORAD_CAT_ID": 54243, "ELEMENT_SET_NO": 999, "REV_AT_EPOCH": 538, "BSTAR": 0, "MEAN_MOTION_DOT": 3.4e-07, "MEAN_MOTION_DDOT": 0}, "tle": {"line1": "1 54243U 22153A   25358.94983050  .00000034  00000+0  00000+0 0  9997", "line2": "2 54243   0.0215 255.6051 0001535  28.4390  30.6067  1.00271396  5389"}}, "geometry": {"type": "Point", "coordinates": [147.6531150987329, 0.0022167540542928884]}}, {"type": "Feature", "properties": {"norad_id": 54244, "name": "GALAXY 32 (G-32)", "group": "intelsat", "lat": 0.00940161915754997, "lon": 177.65305382861348, "alt_km": 35792.52441853142, "timestamp": "2025-12-25T11:37:44.089791+00:00", "meta": {"OBJECT_NAME": "GALAXY 32 (G-32)", "OBJECT_ID": "2022-153B", "EPOCH": "2025-12-24T09:22:58.424736", "MEAN_MOTION": 1.00271076, "ECCENTRICITY": 0.00019303, "INCLINATION": 0.0094, "RA_OF_ASC_NODE": 17.9, "ARG_OF_PERICENTER": 299.4695, "MEAN_ANOMALY": 185.5393, "EPHEMERIS_TYPE": 0, "CLASSIFICATION_TYPE": "U", "NORAD_CAT_ID": 54244, "ELEMENT_SET_NO": 999, "REV_AT_EPOCH": 1139, "BSTAR": 0, "MEAN_MOTION_DOT": -1.53e-06, "MEAN_MOTION_DDOT": 0}, "tle": {"line1": "1 54244U 22153B   25358.39095399 -.00000153  00000+0  00000+0 0  9990", "line2": "2 54244   0.0094  17.9000 0001930 299.4695 185.5393  1.00271076 11390"}}, "geometry": {"type": "Point", "coordinates": [177.65305382861348, 0.00940161915754997]}}, {"type": "Feature", "properties": {"norad_id": 54741, "name": "GALAXY 35 (G-35)", "group": "intelsat", "lat": -0.008221220419210765, "lon": 175.5519877292671, "alt_km": 35788.02112488002, "timestamp": "2025-12-25T11:37:44.089803+00:00", "meta": {"OBJECT_NAME": "GALAXY 35 (G-35)", "OBJECT_ID": "2022-170A", "EPOCH": "2025-12-24T22:55:44.590080", "MEAN_MOTION": 1.00271199, "ECCENTRICITY": 0.0002305, "INCLINATION": 0.0288, "RA_OF_ASC_NODE": 246.2367, "ARG_OF_PERICENTER": 29.6391, "MEAN_ANOMALY": 68.6906, "EPHEMERIS_TYPE": 0, "CLASSIFICATION_TYPE": "U", "NORAD_CAT_ID": 54741, "ELEMENT_SET_NO": 999, "REV_AT_EPOCH": 1114, "BSTAR": 0, "MEAN_MOTION_DOT": -1.41e-06, "MEAN_MOTION_DDOT": 0}, "tle": {"line1": "1 54741U 22170A   25358.95537720 -.00000141  00000+0  00000+0 0  9999", "line2": "2 54741   0.0288 246.2367 0002305  29.6391  68.6906  1.00271199 11143"}}, "geometry": {"type": "Point", "coordinates": [175.5519877292671, -0.008221220419210765]}}, {"type": "Feature", "properties": {"norad_id": 54742, "name": "GALAXY 36 (G-36)", "group": "intelsat", "lat": 0.014787843029402673, "lon": 179.67763400984356, "alt_km": 35787.36636574214, "timestamp": "2025-12-25T11:37:44.089815+00:00", "meta": {"OBJECT_NAME": "GALAXY 36 (G-36)", "OBJECT_ID": "2022-170B", "EPOCH": "2025-12-25T00:45:14.126400", "MEAN_MOTION": 1.00272273, "ECCENTRICITY": 3.47e-05, "INCLINATION": 0.0122, "RA_OF_ASC_NODE": 82.1613, "ARG_OF_PERICENTER": 260.7471, "MEAN_ANOMALY": 33.2048, "EPHEMERIS_TYPE": 0, "CLASSIFICATION_TYPE": "U", "NORAD_CAT_ID": 54742, "ELEMENT_SET_NO": 999, "REV_AT_EPOCH": 1102, "BSTAR": 0, "MEAN_MOTION_DOT": -1.64e-06, "MEAN_MOTION_DDOT": 0}, "tle": {"line1": "1 54742U 22170B   25359.03141350 -.00000164  00000+0  00000+0 0  9995", "line2": "2 54742   0.0122  82.1613 0000347 260.7471  33.2048  1.00272273 11029"}}, "geometry": {"type": "Point", "coordinates": [179.67763400984356, 0.014787843029402673]}}, {"type": "Feature", "properties": {"norad_id": 57493, "name": "GALAXY 37 (G-37)", "group": "intelsat", "lat": 0.028781190055194774, "lon": 141.6456628049737, "alt_km": 35792.39561509816, "timestamp": "2025-12-25T11:37:44.089826+00:00", "meta": {"OBJECT_NAME": "GALAXY 37 (G-37)", "OBJECT_ID": "2023-112A", "EPOCH": "2025-12-25T02:12:06.742944", "MEAN_MOTION": 1.00271697, "ECCENTRICITY": 0.0002083, "INCLINATION": 0.0153, "RA_OF_ASC_NODE": 16.0751, "ARG_OF_PERICENTER": 261.3487, "MEAN_ANOMALY": 82.4525, "EPHEMERIS_TYPE": 0, "CLASSIFICATION_TYPE": "U", "NORAD_CAT_ID": 57493, "ELEMENT_SET_NO": 999, "REV_AT_EPOCH": 879, "BSTAR": 0, "MEAN_MOTION_DOT": 6.9e-07, "MEAN_MOTION_DDOT": 0}, "tle": {"line1": "1 57493U 23112A   25359.09174471  .00000069  00000+0  00000+0 0  9997", "line2": "2 57493   0.0153  16.0751 0002083 261.3487  82.4525  1.00271697  8796"}}, "geometry": {"type": "Point", "coordinates": [141.6456628049737, 0.028781190055194774]}}]}